{
  "type": "FeatureCollection",
  "features": [
    {
      "type": "Feature",
      "properties": {
        "norad_id": 31058,
        "name": "FENGYUN 1C DEB",
        "group": "fengyun-1c-debris",
        "lat": -52.22980272602767,
        "lon": 120.08466923567839,
        "alt_km": 712.9270063019139,
        "timestamp": "2025-12-26T19:22:39.187111+00:00",
        "meta_object_name": "FENGYUN 1C DEB",
        "meta_object_id": "1999-025BFC",
        "meta_epoch": "2025-12-21T14:43:24.738528",
        "meta_mean_motion": 14.76461843,
        "meta_eccentricity": 0.00952203,
        "meta_inclination": 99.5682,
        "meta_ra_of_asc_node": 306.5125,
        "meta_arg_of_pericenter": 79.2038,
        "meta_mean_anomaly": 281.9867,
        "meta_ephemeris_type": 0,
        "meta_classification_type": "U",
        "meta_norad_cat_id": 31058,
        "meta_element_set_no": 999,
        "meta_rev_at_epoch": 99680,
        "meta_bstar": 0.0010269728,
        "meta_mean_motion_dot": 7.633e-05,
        "meta_mean_motion_ddot": 0,
        "tle_line1": "1 31058U 99025BFC 25355.61348077  .00007633  00000+0  10270-2 0  9998",
        "tle_line2": "2 31058  99.5682 306.5125 0095220  79.2038 281.9867 14.76461843996804"
      },
      "geometry": {
        "type": "Point",
        "coordinates": [
          120.08466923567839,
          -52.22980272602767
        ]
      }
    },
    {
      "type": "Feature",
      "properties": {
        "norad_id": 31062,
        "name": "FENGYUN 1C DEB",
        "group": "fengyun-1c-debris",
        "lat": -12.083317188787966,
        "lon": -175.63616657472957,
        "alt_km": 933.3348327975491,
        "timestamp": "2025-12-26T19:22:39.187121+00:00",
        "meta_object_name": "FENGYUN 1C DEB",
        "meta_object_id": "1999-025BFG",
        "meta_epoch": "2025-12-24T18:39:18.485856",
        "meta_mean_motion": 13.75697758,
        "meta_eccentricity": 0.01713774,
        "meta_inclination": 98.997,
        "meta_ra_of_asc_node": 180.503,
        "meta_arg_of_pericenter": 285.781,
        "meta_mean_anomaly": 91.5783,
        "meta_ephemeris_type": 0,
        "meta_classification_type": "U",
        "meta_norad_cat_id": 31062,
        "meta_element_set_no": 999,
        "meta_rev_at_epoch": 94399,
        "meta_bstar": 0.00024224696,
        "meta_mean_motion_dot": 2.18e-06,
        "meta_mean_motion_ddot": 0,
        "tle_line1": "1 31062U 99025BFG 25358.77729729  .00000218  00000+0  24225-3 0  9998",
        "tle_line2": "2 31062  98.9970 180.5030 0171377 285.7810  91.5783 13.75697758943995"
      },
      "geometry": {
        "type": "Point",
        "coordinates": [
          -175.63616657472957,
          -12.083317188787966
        ]
      }
    },
    {
      "type": "Feature",
      "properties": {
        "norad_id": 31064,
        "name": "FENGYUN 1C DEB",
        "group": "fengyun-1c-debris",
        "lat": -31.5648958142768,
        "lon": -11.56141768500938,
        "alt_km": 652.1297270936011,
        "timestamp": "2025-12-26T19:22:39.187132+00:00",
        "meta_object_name": "FENGYUN 1C DEB",
        "meta_object_id": "1999-025BFJ",
        "meta_epoch": "2025-12-25T04:44:59.881920",
        "meta_mean_motion": 14.22163246,
        "meta_eccentricity": 0.024077,
        "meta_inclination": 98.575,
        "meta_ra_of_asc_node": 341.5529,
        "meta_arg_of_pericenter": 325.4003,
        "meta_mean_anomaly": 46.8485,
        "meta_ephemeris_type": 0,
        "meta_classification_type": "U",
        "meta_norad_cat_id": 31064,
        "meta_element_set_no": 999,
        "meta_rev_at_epoch": 97432,
        "meta_bstar": 0.00037871,
        "meta_mean_motion_dot": 1.078e-05,
        "meta_mean_motion_ddot": 0,
        "tle_line1": "1 31064U 99025BFJ 25359.19791530  .00001078  00000+0  37871-3 0  9992",
        "tle_line2": "2 31064  98.5750 341.5529 0240770 325.4003  46.8485 14.22163246974327"
      },
      "geometry": {
        "type": "Point",
        "coordinates": [
          -11.56141768500938,
          -31.5648958142768
        ]
      }
    },
    {
      "type": "Feature",
      "properties": {
        "norad_id": 31065,
        "name": "FENGYUN 1C DEB",
        "group": "fengyun-1c-debris",
        "lat": -23.424430311431752,
        "lon": -164.21170918859,
        "alt_km": 823.7607547926282,
        "timestamp": "2025-12-26T19:22:39.187142+00:00",
        "meta_object_name": "FENGYUN 1C DEB",
        "meta_object_id": "1999-025BFK",
        "meta_epoch": "2025-12-24T07:34:42.003552",
        "meta_mean_motion": 14.28222033,
        "meta_eccentricity": 0.00346758,
        "meta_inclination": 98.4648,
        "meta_ra_of_asc_node": 17.0717,
        "meta_arg_of_pericenter": 357.2807,
        "meta_mean_anomaly": 2.8181,
        "meta_ephemeris_type": 0,
        "meta_classification_type": "U",
        "meta_norad_cat_id": 31065,
        "meta_element_set_no": 999,
        "meta_rev_at_epoch": 64743,
        "meta_bstar": 0.00089045947,
        "meta_mean_motion_dot": 2.191e-05,
        "meta_mean_motion_ddot": 0,
        "tle_line1": "1 31065U 99025BFK 25358.31576393  .00002191  00000+0  89046-3 0  9992",
        "tle_line2": "2 31065  98.4648  17.0717 0034675 357.2807   2.8181 14.28222033647437"
      },
      "geometry": {
        "type": "Point",
        "coordinates": [
          -164.21170918859,
          -23.424430311431752
        ]
      }
    },
    {
      "type": "Feature",
      "properties": {
        "norad_id": 31068,
        "name": "FENGYUN 1C DEB",
        "group": "fengyun-1c-debris",
        "lat": 0.2781727670412098,
        "lon": -17.649922120640923,
        "alt_km": 838.3812350849976,
        "timestamp": "2025-12-26T19:22:39.187152+00:00",
        "meta_object_name": "FENGYUN 1C DEB",
        "meta_object_id": "1999-025BFN",
        "meta_epoch": "2025-12-26T04:02:23.522784",
        "meta_mean_motion": 14.09200241,
        "meta_eccentricity": 0.01658062,
        "meta_inclination": 98.6304,
        "meta_ra_of_asc_node": 341.7798,
        "meta_arg_of_pericenter": 80.3434,
        "meta_mean_anomaly": 281.6423,
        "meta_ephemeris_type": 0,
        "meta_classification_type": "U",
        "meta_norad_cat_id": 31068,
        "meta_element_set_no": 999,
        "meta_rev_at_epoch": 96544,
        "meta_bstar": 0.00024464667,
        "meta_mean_motion_dot": 4.42e-06,
        "meta_mean_motion_ddot": 0,
        "tle_line1": "1 31068U 99025BFN 25360.16832781  .00000442  00000+0  24465-3 0  9998",
        "tle_line2": "2 31068  98.6304 341.7798 0165806  80.3434 281.6423 14.09200241965444"
      },
      "geometry": {
        "type": "Point",
        "coordinates": [
          -17.649922120640923,
          0.2781727670412098
        ]
      }
    },
    {
      "type": "Feature",
      "properties": {
        "norad_id": 31069,
        "name": "FENGYUN 1C DEB",
        "group": "fengyun-1c-debris",
        "lat": -76.64509239433069,
        "lon": -60.076737909685875,
        "alt_km": 761.225060220695,
        "timestamp": "2025-12-26T19:22:39.187162+00:00",
        "meta_object_name": "FENGYUN 1C DEB",
        "meta_object_id": "1999-025BFP",
        "meta_epoch": "2025-12-24T06:51:36.664992",
        "meta_mean_motion": 14.57173956,
        "meta_eccentricity": 0.01042029,
        "meta_inclination": 99.1001,
        "meta_ra_of_asc_node": 159.6357,
        "meta_arg_of_pericenter": 42.6604,
        "meta_mean_anomaly": 318.2624,
        "meta_ephemeris_type": 0,
        "meta_classification_type": "U",
        "meta_norad_cat_id": 31069,
        "meta_element_set_no": 999,
        "meta_rev_at_epoch": 98854,
        "meta_bstar": 0.0006394022,
        "meta_mean_motion_dot": 3.049e-05,
        "meta_mean_motion_ddot": 0,
        "tle_line1": "1 31069U 99025BFP 25358.28584103  .00003049  00000+0  63940-3 0  9998",
        "tle_line2": "2 31069  99.1001 159.6357 0104202  42.6604 318.2624 14.57173956988546"
      },
      "geometry": {
        "type": "Point",
        "coordinates": [
          -60.076737909685875,
          -76.64509239433069
        ]
      }
    },
    {
      "type": "Feature",
      "properties": {
        "norad_id": 31071,
        "name": "FENGYUN 1C DEB",
        "group": "fengyun-1c-debris",
        "lat": 47.53708016629846,
        "lon": -90.34547041515863,
        "alt_km": 724.1675569396693,
        "timestamp": "2025-12-26T19:22:39.187186+00:00",
        "meta_object_name": "FENGYUN 1C DEB",
        "meta_object_id": "1999-025BFR",
        "meta_epoch": "2025-12-26T12:09:23.467968",
        "meta_mean_motion": 14.52747452,
        "meta_eccentricity": 0.00560943,
        "meta_inclination": 99.0392,
        "meta_ra_of_asc_node": 79.3129,
        "meta_arg_of_pericenter": 239.9676,
        "meta_mean_anomaly": 119.5945,
        "meta_ephemeris_type": 0,
        "meta_classification_type": "U",
        "meta_norad_cat_id": 31071,
        "meta_element_set_no": 999,
        "meta_rev_at_epoch": 65694,
        "meta_bstar": 0.0011588727,
        "meta_mean_motion_dot": 4.803e-05,
        "meta_mean_motion_ddot": 0,
        "tle_line1": "1 31071U 99025BFR 25360.50652162  .00004803  00000+0  11589-2 0  9990",
        "tle_line2": "2 31071  99.0392  79.3129 0056094 239.9676 119.5945 14.52747452656948"
      },
      "geometry": {
        "type": "Point",
        "coordinates": [
          -90.34547041515863,
          47.53708016629846
        ]
      }
    }
  ]
}